CTC1_L_00490008-07
1 10062U 24765JE  26075.70035880  .00000000  00000+0  00000-0 0  9993
2 10062 100.2000  84.0000 0000000   0.0000 312.0000 13.16009679    15
CTC1_L_00490008-08
1 10063U 23235YJ  26075.70035880  .00000000  00000+0  00000-0 0  9995
2 10063 100.2000  84.0000 0000000   0.0000 357.0000 13.16009679    15
CTC1_L_00490009-01
1 10064U 22294EZ  26075.70035880  .00000000  00000+0  00000-0 0  9990
2 10064 100.2000  96.0000 0000000   0.0000  48.0000 13.16009679    16
CTC1_L_00490009-02
1 10065U 23379NM  26075.70035880  .00000000  00000+0  00000-0 0  9996
2 10065 100.2000  96.0000 0000000   0.0000  93.0000 13.16009679    17
CTC1_L_00490009-03
1 10066U 24197O   26075.70035880  .00000000  00000+0  00000-0 0  9996
2 10066 100.2000  96.0000 0000000   0.0000 138.0000 13.16009679    18
CTC1_L_00490009-04
1 10067U 23119LO  26075.70035880  .00000000  00000+0  00000-0 0  9990
2 10067 100.2000  96.0000 0000000   0.0000 183.0000 13.16009679    19
CTC1_L_00490009-05
1 10068U 25996CW  26075.70035880  .00000000  00000+0  00000-0 0  9996
2 10068 100.2000  96.0000 0000000   0.0000 228.0000 13.16009679    10
CTC1_L_00490009-06
1 10069U 26058CG  26075.70035880  .00000000  00000+0  00000-0 0  9997
2 10069 100.2000  96.0000 0000000   0.0000 273.0000 13.16009679    11
CTC1_L_00490009-07
1 10070U 23429UT  26075.70035880  .00000000  00000+0  00000-0 0  9998
2 10070 100.2000  96.0000 0000000   0.0000 318.0000 13.16009679    13
CTC1_L_00490009-08
1 10071U 26557WS  26075.70035880  .00000000  00000+0  00000-0 0  9994
2 10071 100.2000  96.0000 0000000   0.0000   3.0000 13.16009679    15
CTC1_L_00490010-01
1 10072U 22042LH  26075.70035880  .00000000  00000+0  00000-0 0  9990
2 10072 100.2000 108.0000 0000000   0.0000  54.0000 13.16009679    16
CTC1_L_00490010-02
1 10073U 25576ZY  26075.70035880  .00000000  00000+0  00000-0 0  9996
2 10073 100.2000 108.0000 0000000   0.0000  99.0000 13.16009679    16
CTC1_L_00490010-03
1 10074U 24179OD  26075.70035880  .00000000  00000+0  00000-0 0  9995
2 10074 100.2000 108.0000 0000000   0.0000 144.0000 13.16009679    18
CTC1_L_00490010-04
1 10075U 25032OA  26075.70035880  .00000000  00000+0  00000-0 0  9995
2 10075 100.2000 108.0000 0000000   0.0000 189.0000 13.16009679    18
CTC1_L_00490010-05
1 10076U 25018JN  26075.70035880  .00000000  00000+0  00000-0 0  9990
2 10076 100.2000 108.0000 0000000   0.0000 234.0000 13.16009679    10
CTC1_L_00490010-06
1 10077U 24741KA  26075.70035880  .00000000  00000+0  00000-0 0  9993
2 10077 100.2000 108.0000 0000000   0.0000 279.0000 13.16009679    10
CTC1_L_00490010-07
1 10078U 22531EZ  26075.70035880  .00000000  00000+0  00000-0 0  9999
2 10078 100.2000 108.0000 0000000   0.0000 324.0000 13.16009679    12
CTC1_L_00490010-08
1 10079U 26012WM  26075.70035880  .00000000  00000+0  00000-0 0  9998
2 10079 100.2000 108.0000 0000000   0.0000   9.0000 13.16009679    13
CTC1_L_00490011-01
1 10080U 26470JY  26075.70035880  .00000000  00000+0  00000-0 0  9998
2 10080 100.2000 120.0000 0000000   0.0000  60.0000 13.16009679    16
CTC1_L_00490011-02
1 10081U 22959OO  26075.70035880  .00000000  00000+0  00000-0 0  9997
2 10081 100.2000 120.0000 0000000   0.0000 105.0000 13.16009679    17
CTC1_L_00490011-03
1 10082U 26329QQ  26075.70035880  .00000000  00000+0  00000-0 0  9993
2 10082 100.2000 120.0000 0000000   0.0000 150.0000 13.16009679    18
CTC1_L_00490011-04
1 10083U 22695OA  26075.70035880  .00000000  00000+0  00000-0 0  9996
2 10083 100.2000 120.0000 0000000   0.0000 195.0000 13.16009679    18
CTC1_L_00490011-05
1 10084U 26379XZ  26075.70035880  .00000000  00000+0  00000-0 0  9990
2 10084 100.2000 120.0000 0000000   0.0000 240.0000 13.16009679    10
CTC1_L_00490011-06
1 10085U 22289JA  26075.70035880  .00000000  00000+0  00000-0 0  9997
2 10085 100.2000 120.0000 0000000   0.0000 285.0000 13.16009679    10
CTC1_L_00490011-07
1 10086U 26336QU  26075.70035880  .00000000  00000+0  00000-0 0  9995
2 10086 100.2000 120.0000 0000000   0.0000 330.0000 13.16009679    12
CTC1_L_00490011-08
1 10087U 25930ZT  26075.70035880  .00000000  00000+0  00000-0 0  9995
2 10087 100.2000 120.0000 0000000   0.0000  15.0000 13.16009679    13
CTC1_L_00490012-01
1 10088U 25609KE  26075.70035880  .00000000  00000+0  00000-0 0  9999
2 10088 100.2000 132.0000 0000000   0.0000  66.0000 13.16009679    13
CTC1_L_00490012-02
1 10089U 23266ZN  26075.70035880  .00000000  00000+0  00000-0 0  9997
2 10089 100.2000 132.0000 0000000   0.0000 111.0000 13.16009679    15
CTC1_L_00490012-03
1 10090U 24732AM  26075.70035880  .00000000  00000+0  00000-0 0  9998
2 10090 100.2000 132.0000 0000000   0.0000 156.0000 13.16009679    16
CTC1_L_00490012-04
1 10091U 23736XE  26075.70035880  .00000000  00000+0  00000-0 0  9992
2 10091 100.2000 132.0000 0000000   0.0000 201.0000 13.16009679    18
CTC1_L_00490012-05
1 10092U 25008MF  26075.70035880  .00000000  00000+0  00000-0 0  9997
2 10092 100.2000 132.0000 0000000   0.0000 246.0000 13.16009679    18
CTC1_L_00490012-06
1 10093U 23186SL  26075.70035880  .00000000  00000+0  00000-0 0  9993
2 10093 100.2000 132.0000 0000000   0.0000 291.0000 13.16009679    19
CTC1_L_00490012-07
1 10094U 24133WS  26075.70035880  .00000000  00000+0  00000-0 0  9997
2 10094 100.2000 132.0000 0000000   0.0000 336.0000 13.16009679    10
CTC1_L_00490012-08
1 10095U 24178FB  26075.70035880  .00000000  00000+0  00000-0 0  9997
2 10095 100.2000 132.0000 0000000   0.0000  21.0000 13.16009679    12
CTC1_L_00490013-01
1 10096U 25467RR  26075.70035880  .00000000  00000+0  00000-0 0  9990
2 10096 100.2000 144.0000 0000000   0.0000  72.0000 13.16009679    12
CTC1_L_00490013-02
1 10097U 26242ND  26075.70035880  .00000000  00000+0  00000-0 0  9993
2 10097 100.2000 144.0000 0000000   0.0000 117.0000 13.16009679    13
CTC1_L_00490013-03
1 10098U 22714ZK  26075.70035880  .00000000  00000+0  00000-0 0  9994
2 10098 100.2000 144.0000 0000000   0.0000 162.0000 13.16009679    14
CTC1_L_00490013-04
1 10099U 22262QC  26075.70035880  .00000000  00000+0  00000-0 0  9993
2 10099 100.2000 144.0000 0000000   0.0000 207.0000 13.16009679    15
CTC1_L_00490013-05
1 10100U 23998NZ  26075.70035880  .00000000  00000+0  00000-0 0  9993
2 10100 100.2000 144.0000 0000000   0.0000 252.0000 13.16009679    18
CTC1_L_00490013-06
1 10101U 24812ME  26075.70035880  .00000000  00000+0  00000-0 0  9990
2 10101 100.2000 144.0000 0000000   0.0000 297.0000 13.16009679    18
CTC1_L_00490013-07
1 10102U 24926MD  26075.70035880  .00000000  00000+0  00000-0 0  9997
2 10102 100.2000 144.0000 0000000   0.0000 342.0000 13.16009679    10
CTC1_L_00490013-08
1 10103U 22583PV  26075.70035880  .00000000  00000+0  00000-0 0  9995
2 10103 100.2000 144.0000 0000000   0.0000  27.0000 13.16009679    11
CTC1_L_00490014-01
1 10104U 22057JN  26075.70035880  .00000000  00000+0  00000-0 0  9992
2 10104 100.2000 156.0000 0000000   0.0000  78.0000 13.16009679    11
CTC1_L_00490014-02
1 10105U 25311A   26075.70035880  .00000000  00000+0  00000-0 0  9999
2 10105 100.2000 156.0000 0000000   0.0000 123.0000 13.16009679    13
CTC1_L_00490014-03
1 10106U 23856HA  26075.70035880  .00000000  00000+0  00000-0 0  9992
2 10106 100.2000 156.0000 0000000   0.0000 168.0000 13.16009679    13
CTC1_L_00490014-04
1 10107U 24913YE  26075.70035880  .00000000  00000+0  00000-0 0  9998
2 10107 100.2000 156.0000 0000000   0.0000 213.0000 13.16009679    15
CTC1_L_00490014-05
1 10108U 26424UK  26075.70035880  .00000000  00000+0  00000-0 0  9998
2 10108 100.2000 156.0000 0000000   0.0000 258.0000 13.16009679    15
CTC1_L_00490014-06
1 10109U 25179FD  26075.70035880  .00000000  00000+0  00000-0 0  9995
2 10109 100.2000 156.0000 0000000   0.0000 303.0000 13.16009679    17
CTC1_L_00490014-07
1 10110U 24531ML  26075.70035880  .00000000  00000+0  00000-0 0  9998
2 10110 100.2000 156.0000 0000000   0.0000 348.0000 13.16009679    18
CTC1_L_00490014-08
1 10111U 22350TP  26075.70035880  .00000000  00000+0  00000-0 0  9996
2 10111 100.2000 156.0000 0000000   0.0000  33.0000 13.16009679    10
CTC1_L_00490015-01
1 10112U 26934PU  26075.70035880  .00000000  00000+0  00000-0 0  9999
2 10112 100.2000 168.0000 0000000   0.0000  84.0000 13.16009679    10
CTC1_L_00490015-02
1 10113U 23833YE  26075.70035880  .00000000  00000+0  00000-0 0  9995
2 10113 100.2000 168.0000 0000000   0.0000 129.0000 13.16009679    11
CTC1_L_00490015-03
1 10114U 24583BE  26075.70035880  .00000000  00000+0  00000-0 0  9999
2 10114 100.2000 168.0000 0000000   0.0000 174.0000 13.16009679    12
CTC1_L_00490015-04
1 10115U 22603OO  26075.70035880  .00000000  00000+0  00000-0 0  9991
2 10115 100.2000 168.0000 0000000   0.0000 219.0000 13.16009679    13
CTC1_L_00490015-05
1 10116U 26920WX  26075.70035880  .00000000  00000+0  00000-0 0  9998
2 10116 100.2000 168.0000 0000000   0.0000 264.0000 13.16009679    14
CTC1_L_00490015-06
1 10117U 26427FQ  26075.70035880  .00000000  00000+0  00000-0 0  9991
2 10117 100.2000 168.0000 0000000   0.0000 309.0000 13.16009679    15
CTC1_L_00490015-07
1 10118U 22433SI  26075.70035880  .00000000  00000+0  00000-0 0  9995
2 10118 100.2000 168.0000 0000000   0.0000 354.0000 13.16009679    16
CTC1_L_00490015-08
1 10119U 26240JC  26075.70035880  .00000000  00000+0  00000-0 0  9996
2 10119 100.2000 168.0000 0000000   0.0000  39.0000 13.16009679    17
CTC1_L_00490016-01
1 10120U 22824CG  26075.70035880  .00000000  00000+0  00000-0 0  9992
2 10120 100.2000 180.0000 0000000   0.0000  90.0000 13.16009679    10
CTC1_L_00490016-02
1 10121U 24115GW  26075.70035880  .00000000  00000+0  00000-0 0  9998
2 10121 100.2000 180.0000 0000000   0.0000 135.0000 13.16009679    11
CTC1_L_00490016-03
1 10122U 24531MG  26075.70035880  .00000000  00000+0  00000-0 0  9991
2 10122 100.2000 180.0000 0000000   0.0000 180.0000 13.16009679    12
CTC1_L_00490016-04
1 10123U 22300XH  26075.70035880  .00000000  00000+0  00000-0 0  9994
2 10123 100.2000 180.0000 0000000   0.0000 225.0000 13.16009679    13
